{
  "type": "FeatureCollection",
  "features": [
    {
      "type": "Feature",
      "properties": {
        "norad_id": 34036,
        "name": "COSMOS 2251 DEB",
        "group": "cosmos-2251-debris",
        "lat": -67.89394779884931,
        "lon": 87.37905818241391,
        "alt_km": 591.7154988027323,
        "timestamp": "2025-12-21T03:56:51.226430+00:00",
        "meta_object_name": "COSMOS 2251 DEB",
        "meta_object_id": "1993-036HX",
        "meta_epoch": "2025-12-20T18:38:54.070080",
        "meta_mean_motion": 14.9554893,
        "meta_eccentricity": 0.0010838,
        "meta_inclination": 74.0192,
        "meta_ra_of_asc_node": 133.035,
        "meta_arg_of_pericenter": 162.4424,
        "meta_mean_anomaly": 197.7137,
        "meta_ephemeris_type": 0,
        "meta_classification_type": "U",
        "meta_norad_cat_id": 34036,
        "meta_element_set_no": 999,
        "meta_rev_at_epoch": 88690,
        "meta_bstar": 0.002297,
        "meta_mean_motion_dot": 0.00025561,
        "meta_mean_motion_ddot": 0,
        "tle_line1": "1 34036U 93036HX  25354.77701470  .00025561  00000+0  22970-2 0  9999",
        "tle_line2": "2 34036  74.0192 133.0350 0010838 162.4424 197.7137 14.95548930886903"
      },
      "geometry": {
        "type": "Point",
        "coordinates": [
          87.37905818241391,
          -67.89394779884931
        ]
      }
    },
    {
      "type": "Feature",
      "properties": {
        "norad_id": 34037,
        "name": "COSMOS 2251 DEB",
        "group": "cosmos-2251-debris",
        "lat": -49.69880588473054,
        "lon": 15.318142228300395,
        "alt_km": 808.6968578788938,
        "timestamp": "2025-12-21T03:56:51.226439+00:00",
        "meta_object_name": "COSMOS 2251 DEB",
        "meta_object_id": "1993-036HY",
        "meta_epoch": "2025-12-20T19:49:29.803296",
        "meta_mean_motion": 14.34683641,
        "meta_eccentricity": 0.0051823,
        "meta_inclination": 74.0512,
        "meta_ra_of_asc_node": 35.6426,
        "meta_arg_of_pericenter": 83.1301,
        "meta_mean_anomaly": 277.5744,
        "meta_ephemeris_type": 0,
        "meta_classification_type": "U",
        "meta_norad_cat_id": 34037,
        "meta_element_set_no": 999,
        "meta_rev_at_epoch": 87833,
        "meta_bstar": 0.00029103,
        "meta_mean_motion_dot": 8.11e-06,
        "meta_mean_motion_ddot": 0,
        "tle_line1": "1 34037U 93036HY  25354.82603939  .00000811  00000+0  29103-3 0  9994",
        "tle_line2": "2 34037  74.0512  35.6426 0051823  83.1301 277.5744 14.34683641878334"
      },
      "geometry": {
        "type": "Point",
        "coordinates": [
          15.318142228300395,
          -49.69880588473054
        ]
      }
    },
    {
      "type": "Feature",
      "properties": {
        "norad_id": 34040,
        "name": "COSMOS 2251 DEB",
        "group": "cosmos-2251-debris",
        "lat": -11.52500806924581,
        "lon": 48.57878739275559,
        "alt_km": 764.3592662081628,
        "timestamp": "2025-12-21T03:56:51.226448+00:00",
        "meta_object_name": "COSMOS 2251 DEB",
        "meta_object_id": "1993-036JB",
        "meta_epoch": "2025-12-20T12:12:41.867424",
        "meta_mean_motion": 13.68385497,
        "meta_eccentricity": 0.0343303,
        "meta_inclination": 73.9557,
        "meta_ra_of_asc_node": 53.0256,
        "meta_arg_of_pericenter": 4.8123,
        "meta_mean_anomaly": 355.6151,
        "meta_ephemeris_type": 0,
        "meta_classification_type": "U",
        "meta_norad_cat_id": 34040,
        "meta_element_set_no": 999,
        "meta_rev_at_epoch": 83706,
        "meta_bstar": 0.00048506,
        "meta_mean_motion_dot": 6.03e-06,
        "meta_mean_motion_ddot": 0,
        "tle_line1": "1 34040U 93036JB  25354.50881791  .00000603  00000+0  48506-3 0  9994",
        "tle_line2": "2 34040  73.9557  53.0256 0343303   4.8123 355.6151 13.68385497837068"
      },
      "geometry": {
        "type": "Point",
        "coordinates": [
          48.57878739275559,
          -11.52500806924581
        ]
      }
    },
    {
      "type": "Feature",
      "properties": {
        "norad_id": 34045,
        "name": "COSMOS 2251 DEB",
        "group": "cosmos-2251-debris",
        "lat": -24.931992272898537,
        "lon": -72.22854924732036,
        "alt_km": 769.617255185859,
        "timestamp": "2025-12-21T03:56:51.226457+00:00",
        "meta_object_name": "COSMOS 2251 DEB",
        "meta_object_id": "1993-036JG",
        "meta_epoch": "2025-12-20T19:50:18.658176",
        "meta_mean_motion": 14.3407292,
        "meta_eccentricity": 0.0025999,
        "meta_inclination": 74.0395,
        "meta_ra_of_asc_node": 296.0345,
        "meta_arg_of_pericenter": 17.2717,
        "meta_mean_anomaly": 13.387,
        "meta_ephemeris_type": 0,
        "meta_classification_type": "U",
        "meta_norad_cat_id": 34045,
        "meta_element_set_no": 999,
        "meta_rev_at_epoch": 88149,
        "meta_bstar": 6.7578e-05,
        "meta_mean_motion_dot": 1.64e-06,
        "meta_mean_motion_ddot": 0,
        "tle_line1": "1 34045U 93036JG  25354.82660484  .00000164  00000+0  67578-4 0  9991",
        "tle_line2": "2 34045  74.0395 296.0345 0025999  17.2717  13.3870 14.34072920881498"
      },
      "geometry": {
        "type": "Point",
        "coordinates": [
          -72.22854924732036,
          -24.931992272898537
        ]
      }
    },
    {
      "type": "Feature",
      "properties": {
        "norad_id": 34046,
        "name": "COSMOS 2251 DEB",
        "group": "cosmos-2251-debris",
        "lat": -20.166908753923906,
        "lon": -11.290986152559698,
        "alt_km": 747.5297968616214,
        "timestamp": "2025-12-21T03:56:51.226467+00:00",
        "meta_object_name": "COSMOS 2251 DEB",
        "meta_object_id": "1993-036JH",
        "meta_epoch": "2025-12-20T01:44:37.329792",
        "meta_mean_motion": 14.46526924,
        "meta_eccentricity": 0.00744564,
        "meta_inclination": 74.0389,
        "meta_ra_of_asc_node": 356.7805,
        "meta_arg_of_pericenter": 78.006,
        "meta_mean_anomaly": 338.5486,
        "meta_ephemeris_type": 0,
        "meta_classification_type": "U",
        "meta_norad_cat_id": 34046,
        "meta_element_set_no": 999,
        "meta_rev_at_epoch": 87932,
        "meta_bstar": 0.00078666467,
        "meta_mean_motion_dot": 2.906e-05,
        "meta_mean_motion_ddot": 0,
        "tle_line1": "1 34046U 93036JH  25354.07265428  .00002906  00000+0  78666-3 0  9993",
        "tle_line2": "2 34046  74.0389 356.7805 0074456  78.0060 338.5486 14.46526924879320"
      },
      "geometry": {
        "type": "Point",
        "coordinates": [
          -11.290986152559698,
          -20.166908753923906
        ]
      }
    },
    {
      "type": "Feature",
      "properties": {
        "norad_id": 34050,
        "name": "COSMOS 2251 DEB",
        "group": "cosmos-2251-debris",
        "lat": 43.98502626960603,
        "lon": 159.61925616504405,
        "alt_km": 861.7423787017078,
        "timestamp": "2025-12-21T03:56:51.226476+00:00",
        "meta_object_name": "COSMOS 2251 DEB",
        "meta_object_id": "1993-036JM",
        "meta_epoch": "2025-12-20T17:32:29.256288",
        "meta_mean_motion": 13.96197358,
        "meta_eccentricity": 0.0214695,
        "meta_inclination": 74.0882,
        "meta_ra_of_asc_node": 356.3442,
        "meta_arg_of_pericenter": 58.6067,
        "meta_mean_anomaly": 54.2106,
        "meta_ephemeris_type": 0,
        "meta_classification_type": "U",
        "meta_norad_cat_id": 34050,
        "meta_element_set_no": 999,
        "meta_rev_at_epoch": 85543,
        "meta_bstar": 0.00052586,
        "meta_mean_motion_dot": 8.56e-06,
        "meta_mean_motion_ddot": 0,
        "tle_line1": "1 34050U 93036JM  25354.73089417  .00000856  00000+0  52586-3 0  9998",
        "tle_line2": "2 34050  74.0882 356.3442 0214695  58.6067  54.2106 13.96197358855434"
      },
      "geometry": {
        "type": "Point",
        "coordinates": [
          159.61925616504405,
          43.98502626960603
        ]
      }
    },
    {
      "type": "Feature",
      "properties": {
        "norad_id": 34053,
        "name": "COSMOS 2251 DEB",
        "group": "cosmos-2251-debris",
        "lat": 52.67223416823215,
        "lon": 26.253451604100224,
        "alt_km": 1156.731614332084,
        "timestamp": "2025-12-21T03:56:51.226485+00:00",
        "meta_object_name": "COSMOS 2251 DEB",
        "meta_object_id": "1993-036JQ",
        "meta_epoch": "2025-12-20T16:41:14.360640",
        "meta_mean_motion": 13.49172922,
        "meta_eccentricity": 0.0422675,
        "meta_inclination": 73.8433,
        "meta_ra_of_asc_node": 229.3517,
        "meta_arg_of_pericenter": 16.5958,
        "meta_mean_anomaly": 344.8501,
        "meta_ephemeris_type": 0,
        "meta_classification_type": "U",
        "meta_norad_cat_id": 34053,
        "meta_element_set_no": 999,
        "meta_rev_at_epoch": 82791,
        "meta_bstar": 0.00050237,
        "meta_mean_motion_dot": 5.27e-06,
        "meta_mean_motion_ddot": 0,
        "tle_line1": "1 34053U 93036JQ  25354.69530510  .00000527  00000+0  50237-3 0  9997",
        "tle_line2": "2 34053  73.8433 229.3517 0422675  16.5958 344.8501 13.49172922827916"
      },
      "geometry": {
        "type": "Point",
        "coordinates": [
          26.253451604100224,
          52.67223416823215
        ]
      }
    }
  ]
}